[{"OBJECT_NAME":"STARLINK-36846","OBJECT_ID":"2026-035R","EPOCH":"2026-03-03T12:00:00.998784","MEAN_MOTION":16.01977433,"ECCENTRICITY":0.0001186,"INCLINATION":97.2765,"RA_OF_ASC_NODE":354.3628,"ARG_OF_PERICENTER":107.2446,"MEAN_ANOMALY":261.9629,"EPHEMERIS_TYPE":0,"CLASSIFICATION_TYPE":"U","NORAD_CAT_ID":67894,"ELEMENT_SET_NO":999,"REV_AT_EPOCH":276,"BSTAR":-0.001918,"MEAN_MOTION_DOT":-0.01084219,"MEAN_MOTION_DDOT":0.00038937},{"OBJECT_NAME":"STARLINK-36866","OBJECT_ID":"2026-035S","EPOCH":"2026-03-03T12:00:00.998784","MEAN_MOTION":16.02078788,"ECCENTRICITY":0.0001041,"INCLINATION":97.2764,"RA_OF_ASC_NODE":354.3643,"ARG_OF_PERICENTER":95.0496,"MEAN_ANOMALY":277.8137,"EPHEMERIS_TYPE":0,"CLASSIFICATION_TYPE":"U","NORAD_CAT_ID":67895,"ELEMENT_SET_NO":999,"REV_AT_EPOCH":276,"BSTAR":-0.0019061,"MEAN_MOTION_DOT":-0.01083832,"MEAN_MOTION_DDOT":0.00038957},{"OBJECT_NAME":"STARLINK-36877","OBJECT_ID":"2026-035T","EPOCH":"2026-03-03T12:00:00.998784","MEAN_MOTION":16.01870115,"ECCENTRICITY":0.0001061,"INCLINATION":97.2765,"RA_OF_ASC_NODE":354.3609,"ARG_OF_PERICENTER":74.603,"MEAN_ANOMALY":290.569,"EPHEMERIS_TYPE":0,"CLASSIFICATION_TYPE":"U","NORAD_CAT_ID":67896,"ELEMENT_SET_NO":999,"REV_AT_EPOCH":276,"BSTAR":-0.0019303,"MEAN_MOTION_DOT":-0.01084406,"MEAN_MOTION_DDOT":0.00038902},{"OBJECT_NAME":"STARLINK-36870","OBJECT_ID":"2026-035U","EPOCH":"2026-03-03T12:00:00.998784","MEAN_MOTION":16.02194703,"ECCENTRICITY":0.0001101,"INCLINATION":97.276,"RA_OF_ASC_NODE":354.3657,"ARG_OF_PERICENTER":81.1922,"MEAN_ANOMALY":295.8575,"EPHEMERIS_TYPE":0,"CLASSIFICATION_TYPE":"U","NORAD_CAT_ID":67897,"ELEMENT_SET_NO":999,"REV_AT_EPOCH":276,"BSTAR":-0.0019088,"MEAN_MOTION_DOT":-0.0109262,"MEAN_MOTION_DDOT":0.00039597},{"OBJECT_NAME":"STARLINK-36810","OBJECT_ID":"2026-035V","EPOCH":"2026-03-03T12:00:00.998784","MEAN_MOTION":16.02281917,"ECCENTRICITY":0.0001318,"INCLINATION":97.2759,"RA_OF_ASC_NODE":354.367,"ARG_OF_PERICENTER":113.9048,"MEAN_ANOMALY":266.4686,"EPHEMERIS_TYPE":0,"CLASSIFICATION_TYPE":"U","NORAD_CAT_ID":67898,"ELEMENT_SET_NO":999,"REV_AT_EPOCH":276,"BSTAR":-0.0018815,"MEAN_MOTION_DOT":-0.01082627,"MEAN_MOTION_DDOT":0.00038968},{"OBJECT_NAME":"STARLINK-36878","OBJECT_ID":"2026-035W","EPOCH":"2026-03-03T12:00:00.998784","MEAN_MOTION":16.02488445,"ECCENTRICITY":0.0001067,"INCLINATION":97.2757,"RA_OF_ASC_NODE":354.3699,"ARG_OF_PERICENTER":82.1848,"MEAN_ANOMALY":304.7449,"EPHEMERIS_TYPE":0,"CLASSIFICATION_TYPE":"U","NORAD_CAT_ID":67899,"ELEMENT_SET_NO":999,"REV_AT_EPOCH":276,"BSTAR":-0.0018679,"MEAN_MOTION_DOT":-0.01087695,"MEAN_MOTION_DDOT":0.00039401},{"OBJECT_NAME":"STARLINK-36361","OBJECT_ID":"2026-035X","EPOCH":"2026-03-03T12:00:00.998784","MEAN_MOTION":16.0258652,"ECCENTRICITY":0.0001025,"INCLINATION":97.2756,"RA_OF_ASC_NODE":354.3716,"ARG_OF_PERICENTER":77.718,"MEAN_ANOMALY":312.8085,"EPHEMERIS_TYPE":0,"CLASSIFICATION_TYPE":"U","NORAD_CAT_ID":67900,"ELEMENT_SET_NO":999,"REV_AT_EPOCH":276,"BSTAR":-0.0018399,"MEAN_MOTION_DOT":-0.01077619,"MEAN_MOTION_DDOT":0.00038773},{"OBJECT_NAME":"STARLINK-36336","OBJECT_ID":"2026-035Y","EPOCH":"2026-03-03T12:00:00.998784","MEAN_MOTION":16.02935738,"ECCENTRICITY":0.0001157,"INCLINATION":97.2759,"RA_OF_ASC_NODE":354.3763,"ARG_OF_PERICENTER":123.8546,"MEAN_ANOMALY":277.5474,"EPHEMERIS_TYPE":0,"CLASSIFICATION_TYPE":"U","NORAD_CAT_ID":67901,"ELEMENT_SET_NO":999,"REV_AT_EPOCH":281,"BSTAR":-0.0018284,"MEAN_MOTION_DOT":-0.01092881,"MEAN_MOTION_DDOT":0.00039956},{"OBJECT_NAME":"STARLINK-36876","OBJECT_ID":"2026-035Z","EPOCH":"2026-03-03T12:00:00.998784","MEAN_MOTION":16.02694362,"ECCENTRICITY":0.0001377,"INCLINATION":97.276,"RA_OF_ASC_NODE":354.3736,"ARG_OF_PERICENTER":117.6166,"MEAN_ANOMALY":276.0398,"EPHEMERIS_TYPE":0,"CLASSIFICATION_TYPE":"U","NORAD_CAT_ID":67902,"ELEMENT_SET_NO":999,"REV_AT_EPOCH":276,"BSTAR":-0.0018451,"MEAN_MOTION_DOT":-0.01087513,"MEAN_MOTION_DDOT":0.00039482},{"OBJECT_NAME":"STARLINK-36257","OBJECT_ID":"2026-035AA","EPOCH":"2026-03-03T12:00:00.998784","MEAN_MOTION":16.02803606,"ECCENTRICITY":0.0001145,"INCLINATION":97.2757,"RA_OF_ASC_NODE":354.3742,"ARG_OF_PERICENTER":101.0397,"MEAN_ANOMALY":295.9035,"EPHEMERIS_TYPE":0,"CLASSIFICATION_TYPE":"U","NORAD_CAT_ID":67903,"ELEMENT_SET_NO":999,"REV_AT_EPOCH":281,"BSTAR":-0.0018366,"MEAN_MOTION_DOT":-0.01089377,"MEAN_MOTION_DDOT":0.00039659}]
